ORBCOMM FM103           
1 40091U 14040F   25059.77986657  .00002132  00000+0  49745-3 0  9998
2 40091  47.0041 169.6727 0001821 178.1547 181.9345 14.57864627548283
ORBCOMM FM114           
1 41179U 15081A   25059.73658904  .00002030  00000+0  47499-3 0  9990
2 41179  47.0014  78.9911 0002719 237.5600 122.5023 14.57916919488644
ORBCOMM FM119           
1 41180U 15081B   25059.85617901  .00002083  00000+0  48701-3 0  9992
2 41180  47.0016 347.6997 0001724 285.9314  74.1381 14.57842272489912
ORBCOMM FM105           
1 41181U 15081C   25059.81510641  .00000993  00000+0  32640-3 0  9995
2 41181  47.0031 342.3596 0001673 216.2948 143.7819 14.45061292485074
ORBCOMM FM110           
1 41182U 15081D   25060.12342879  .00002085  00000+0  48690-3 0  9994
2 41182  47.0007  76.5327 0002442 338.8045  21.2739 14.57907697488750
ORBCOMM FM118           
1 41183U 15081E   25060.17586022  .00001944  00000+0  45713-3 0  9996
2 41183  47.0032  76.7246 0002921 338.6791  21.3972 14.57831568488763
ORBCOMM FM112           
1 41184U 15081F   25059.83270635  .00003030  00000+0  69140-3 0  9996
2 41184  46.9999 346.9779 0001277 264.9679  95.1061 14.57858478489854
ORBCOMM FM113           
1 41185U 15081G   25059.87807601  .00003147  00000+0  71696-3 0  9998
2 41185  47.0015 347.0723 0001413 277.1104  82.9620 14.57847330489847
